NORAD_CAT_ID,OBJECT_NAME,OBJECT_TYPE,EPOCH,MEAN_MOTION,ECCENTRICITY,INCLINATION,RA_OF_ASC_NODE,ARG_OF_PERICENTER,MEAN_ANOMALY,BSTAR,MEAN_MOTION_DOT,MEAN_MOTION_DDOT,TLE_LINE0,TLE_LINE1,TLE_LINE2,SEMIMAJOR_AXIS,PERIOD,APOGEE,PERIGEE,DECAYED
52471.0,STARLINK-3862,PAYLOAD,2024-04-24 14:14:56,15.08851573,0.0001598,53.2185,250.1514,86.4478,273.6697,0.000221,3.232e-05,0.0,0 STARLINK-3862,1 52471U 22049W   24115.59371438  .00003232  00000-0  22100-3 0  9997,2 52471  53.2185 250.1514 0001598  86.4478 273.6697 15.08851573108971,6917.845,95.437,540.815,538.605,0.0
52471.0,STARLINK-3862,PAYLOAD,2024-04-24 15:50:19,15.08851555,0.0001593,53.2185,249.8523,85.7256,274.3918,0.00021332,3.11e-05,0.0,0 STARLINK-3862,1 52471U 22049W   24115.65995327  .00003110  00000-0  21332-3 0  9994,2 52471  53.2185 249.8523 0001593  85.7256 274.3918 15.08851555108982,6917.845,95.437,540.812,538.608,0.0
52471.0,STARLINK-3862,PAYLOAD,2024-04-25 12:30:20,15.08839224,0.0001695,53.2187,245.9929,95.19,264.9285,2.6961e-05,1.41e-06,0.0,0 STARLINK-3862,1 52471U 22049W   24116.52107524  .00000141  00000-0  26961-4 0  9990,2 52471  53.2187 245.9929 0001695  95.1900 264.9285 15.08839224109279,6917.883,95.438,540.92,538.575,0.0
52471.0,STARLINK-3862,PAYLOAD,2024-04-25 14:05:43,15.08845842,0.000163,53.2175,245.6946,99.7028,260.4149,2.8468e-05,1.65e-06,0.0,0 STARLINK-3862,1 52471U 22049W   24116.58731255  .00000165  00000-0  28468-4 0  9990,2 52471  53.2175 245.6946 0001630  99.7028 260.4149 15.08845842109129,6917.863,95.437,540.855,538.6,0.0
52471.0,STARLINK-3862,PAYLOAD,2024-04-26 13:56:30,15.08844262,0.0001631,53.2176,241.2376,77.5756,282.5418,0.00010807,1.433e-05,0.0,0 STARLINK-3862,1 52471U 22049W   24117.58091383  .00001433  00000-0  10807-3 0  9998,2 52471  53.2176 241.2376 0001631  77.5756 282.5418 15.08844262109435,6917.867,95.437,540.861,538.604,0.0
52471.0,STARLINK-3862,PAYLOAD,2024-04-26 15:31:53,15.08853528,0.0001304,53.216,240.9386,78.4634,281.6504,0.00029879,4.472e-05,0.0,0 STARLINK-3862,1 52471U 22049W   24117.64715050  .00004472  00000-0  29879-3 0  9994,2 52471  53.2160 240.9386 0001304  78.4634 281.6504 15.08853528109281,6917.839,95.437,540.606,538.802,0.0
52471.0,STARLINK-3862,PAYLOAD,2024-04-27 13:47:16,15.08864002,0.0001746,53.2185,236.7788,100.1627,259.9562,0.00031288,4.698e-05,0.0,0 STARLINK-3862,1 52471U 22049W   24118.57449834  .00004698  00000-0  31288-3 0  9998,2 52471  53.2185 236.7788 0001746 100.1627 259.9562 15.08864002109429,6917.807,95.436,540.88,538.464,0.0
52471.0,STARLINK-3862,PAYLOAD,2024-04-27 16:58:02,15.0887869,0.0001649,53.2174,236.1794,106.6746,253.4427,0.00069066,0.00010732,0.0,0 STARLINK-3862,1 52471U 22049W   24118.70697141  .00010732  00000-0  69066-3 0  9990,2 52471  53.2174 236.1794 0001649 106.6746 253.4427 15.08878690109600,6917.762,95.435,540.768,538.486,0.0
52471.0,STARLINK-3862,PAYLOAD,2024-04-28 13:38:05,15.0880746,0.0001234,53.2147,232.316,71.2351,288.8775,-0.00069824,-0.00011373,0.0,0 STARLINK-3862,1 52471U 22049W   24119.56812033 -.00011373  00000-0 -69824-3 0  9990,2 52471  53.2147 232.3160 0001234  71.2351 288.8775 15.08807460109733,6917.98,95.44,540.699,538.991,0.0
52471.0,STARLINK-3862,PAYLOAD,2024-04-28 15:13:28,15.0880945,0.0001345,53.2158,232.0195,70.8773,289.2364,-0.00057992,-9.498e-05,0.0,0 STARLINK-3862,1 52471U 22049W   24119.63436159 -.00009498  00000-0 -57992-3 0  9997,2 52471  53.2158 232.0195 0001345  70.8773 289.2364 15.08809450109589,6917.974,95.439,540.769,538.908,0.0
52471.0,STARLINK-3862,PAYLOAD,2024-04-29 00:45:47,15.08823031,0.000152,53.2172,230.2349,71.5192,288.5965,2.7636e-05,1.52e-06,0.0,0 STARLINK-3862,1 52471U 22049W   24120.03180465  .00000152  00000-0  27636-4 0  9998,2 52471  53.2172 230.2349 0001520  71.5192 288.5965 15.08823031109809,6917.932,95.439,540.849,538.746,0.0
52471.0,STARLINK-3862,PAYLOAD,2024-04-29 13:28:53,15.08848468,0.0001494,53.2158,227.8559,60.4518,299.6623,0.0014831,0.000234,0.0,0 STARLINK-3862,1 52471U 22049W   24120.56172878  .00023400  00000-0  14831-2 0  9997,2 52471  53.2158 227.8559 0001494  60.4518 299.6623 15.08848468109880,6917.855,95.437,540.753,538.686,0.0
52471.0,STARLINK-3862,PAYLOAD,2024-04-30 13:19:39,15.08862311,0.0001594,53.2174,223.3963,66.7873,293.3287,0.00097872,0.00015332,0.0,0 STARLINK-3862,1 52471U 22049W   24121.55532050  .00015332  00000-0  97872-3 0  9991,2 52471  53.2174 223.3963 0001594  66.7873 293.3287 15.08862311110031,6917.812,95.436,540.78,538.574,0.0
52471.0,STARLINK-3862,PAYLOAD,2024-05-01 13:10:26,15.08856092,0.0001732,53.2181,218.9321,75.55,284.5684,0.00065069,0.00010087,0.0,0 STARLINK-3862,1 52471U 22049W   24122.54891738  .00010087  00000-0  65069-3 0  9997,2 52471  53.2181 218.9321 0001732  75.5500 284.5684 15.08856092110184,6917.831,95.437,540.894,538.498,0.0
52471.0,STARLINK-3862,PAYLOAD,2024-05-02 13:01:14,15.08831992,0.0001359,53.2165,214.4735,72.1624,287.9517,0.00048877,7.498e-05,0.0,0 STARLINK-3862,1 52471U 22049W   24123.54253356  .00007498  00000-0  48877-3 0  9996,2 52471  53.2165 214.4735 0001359  72.1624 287.9517 15.08831992110332,6917.905,95.438,540.71,538.83,0.0
52471.0,STARLINK-3862,PAYLOAD,2024-05-03 12:52:00,15.08892504,0.0001197,53.2165,210.014,84.23,275.8828,0.0012114,0.00019072,0.0,0 STARLINK-3862,1 52471U 22049W   24124.53611548  .00019072  00000-0  12114-2 0  9992,2 52471  53.2165 210.0140 0001197  84.2300 275.8828 15.08892504110482,6917.72,95.434,540.413,538.757,0.0
52471.0,STARLINK-3862,PAYLOAD,2024-05-03 22:24:19,15.08864985,0.000133,53.216,208.2295,85.7128,274.4016,0.00030457,4.566e-05,0.0,0 STARLINK-3862,1 52471U 22049W   24124.93355439  .00004566  00000-0  30457-3 0  9993,2 52471  53.2160 208.2295 0001330  85.7128 274.4016 15.08864985110385,6917.804,95.436,540.589,538.749,0.0
52471.0,STARLINK-3862,PAYLOAD,2024-05-04 12:42:48,15.08812902,0.0001109,53.216,205.5528,105.9641,254.1473,0.0010644,0.0001668,0.0,0 STARLINK-3862,1 52471U 22049W   24125.52972544  .00016680  00000-0  10644-2 0  9996,2 52471  53.2160 205.5528 0001109 105.9641 254.1473 15.08812902110635,6917.963,95.439,540.595,539.061,0.0
52471.0,STARLINK-3862,PAYLOAD,2024-05-05 14:08:59,15.08848976,0.0001151,53.2162,200.7954,106.5982,253.5137,0.0012258,0.00019279,0.0,0 STARLINK-3862,1 52471U 22049W   24126.58957256  .00019279  00000-0  12258-2 0  9996,2 52471  53.2162 200.7954 0001151 106.5982 253.5137 15.08848976110639,6917.853,95.437,540.514,538.922,0.0
52471.0,STARLINK-3862,PAYLOAD,2024-05-05 22:05:54,15.08856979,0.0001165,53.2163,199.3085,103.8265,256.2857,0.0011468,0.00018019,0.0,0 STARLINK-3862,1 52471U 22049W   24126.92077075  .00018019  00000-0  11468-2 0  9999,2 52471  53.2163 199.3085 0001165 103.8265 256.2857 15.08856979110683,6917.828,95.436,540.499,538.888,0.0
52471.0,STARLINK-3862,PAYLOAD,2024-05-06 12:24:21,15.08878307,0.0001126,53.2156,196.6326,102.3819,257.73,0.0012568,0.00019792,0.0,0 STARLINK-3862,1 52471U 22049W   24127.51692007  .00019792  00000-0  12568-2 0  9994,2 52471  53.2156 196.6326 0001126 102.3819 257.7300 15.08878307110935,6917.763,95.435,540.407,538.849,0.0
52471.0,STARLINK-3862,PAYLOAD,2024-05-06 21:56:40,15.08865176,0.0001209,53.2154,194.848,96.7881,263.3249,0.00060972,9.436e-05,0.0,0 STARLINK-3862,1 52471U 22049W   24127.91435866  .00009436  00000-0  60972-3 0  9993,2 52471  53.2154 194.8480 0001209  96.7881 263.3249 15.08865176110835,6917.803,95.436,540.505,538.832,0.0
52471.0,STARLINK-3862,PAYLOAD,2024-05-07 10:39:45,15.0886095,0.0001176,53.2154,192.4696,83.3227,276.7899,0.00064189,9.948e-05,0.0,0 STARLINK-3862,1 52471U 22049W   24128.44427559  .00009948  00000-0  64189-3 0  9994,2 52471  53.2154 192.4696 0001176  83.3227 276.7899 15.08860950111078,6917.816,95.436,540.495,538.868,0.0
52471.0,STARLINK-3862,PAYLOAD,2024-05-08 04:09:00,15.08846531,0.0001229,53.2147,189.1989,81.9132,278.1999,0.00053877,8.299e-05,0.0,0 STARLINK-3862,1 52471U 22049W   24129.17292009  .00008299  00000-0  53877-3 0  9995,2 52471  53.2147 189.1989 0001229  81.9132 278.1999 15.08846531111184,6917.86,95.437,540.576,538.875,0.0
52471.0,STARLINK-3862,PAYLOAD,2024-05-08 10:30:32,15.08842113,0.0001157,53.2159,188.0085,86.1116,274.0009,7.1821e-05,8.55e-06,0.0,0 STARLINK-3862,1 52471U 22049W   24129.43788029  .00000855  00000-0  71821-4 0  9996,2 52471  53.2159 188.0085 0001157  86.1116 274.0009 15.08842113111067,6917.874,95.437,540.539,538.939,0.0
52471.0,STARLINK-3862,PAYLOAD,2024-05-09 10:21:19,15.0884824,0.0001149,53.2151,183.5476,82.0414,278.0708,0.00023368,3.434e-05,0.0,0 STARLINK-3862,1 52471U 22049W   24130.43147781  .00003434  00000-0  23368-3 0  9990,2 52471  53.2151 183.5476 0001149  82.0414 278.0708 15.08848240111214,6917.855,95.437,540.515,538.925,0.0
52471.0,STARLINK-3862,PAYLOAD,2024-05-10 03:50:34,15.08841543,0.0001111,53.2154,180.2766,81.6851,278.4267,0.00015359,2.158e-05,0.0,0 STARLINK-3862,1 52471U 22049W   24131.16012141  .00002158  00000-0  15359-3 0  9995,2 52471  53.2154 180.2766 0001111  81.6851 278.4267 15.08841543111484,6917.876,95.437,540.509,538.972,0.0
52471.0,STARLINK-3862,PAYLOAD,2024-05-10 10:12:06,15.08845279,0.0001104,53.2159,179.0882,84.8081,275.3037,0.00017565,2.509e-05,0.0,0 STARLINK-3862,1 52471U 22049W   24131.42507874  .00002509  00000-0  17565-3 0  9997,2 52471  53.2159 179.0882 0001104  84.8081 275.3037 15.08845279111364,6917.864,95.437,540.493,538.966,0.0
52471.0,STARLINK-3862,PAYLOAD,2024-05-11 10:02:52,15.08878978,0.0001794,53.2155,174.6277,110.9811,249.1373,0.00082924,0.00012948,0.0,0 STARLINK-3862,1 52471U 22049W   24132.41866826  .00012948  00000-0  82924-3 0  9991,2 52471  53.2155 174.6277 0001794 110.9811 249.1373 15.08878978111674,6917.761,95.435,540.867,538.385,0.0
52471.0,STARLINK-3862,PAYLOAD,2024-05-11 19:35:14,15.08795275,8.87e-05,53.2146,172.8423,74.7106,285.3984,-0.00071614,-0.00011653,0.0,0 STARLINK-3862,1 52471U 22049W   24132.81614109 -.00011653  00000-0 -71614-3 0  9998,2 52471  53.2146 172.8423 0000887  74.7106 285.3984 15.08795275111738,6918.017,95.44,540.496,539.268,0.0
